[{"OBJECT_NAME":"STARLINK-31588","OBJECT_ID":"2024-057R","EPOCH":"2026-03-09T08:48:26.667648","MEAN_MOTION":15.27580923,"ECCENTRICITY":5.571e-5,"INCLINATION":42.9984,"RA_OF_ASC_NODE":188.5548,"ARG_OF_PERICENTER":270.0598,"MEAN_ANOMALY":90.019,"EPHEMERIS_TYPE":0,"CLASSIFICATION_TYPE":"U","NORAD_CAT_ID":59335,"ELEMENT_SET_NO":999,"REV_AT_EPOCH":10979,"BSTAR":-3.8829324e-5,"MEAN_MOTION_DOT":-1.33e-5,"MEAN_MOTION_DDOT":0},{"OBJECT_NAME":"OBJECT F","OBJECT_ID":"2021-022F","EPOCH":"2026-03-09T23:37:37.165152","MEAN_MOTION":15.31317672,"ECCENTRICITY":0.00120882,"INCLINATION":97.3982,"RA_OF_ASC_NODE":329.8375,"ARG_OF_PERICENTER":85.9268,"MEAN_ANOMALY":274.3355,"EPHEMERIS_TYPE":0,"CLASSIFICATION_TYPE":"U","NORAD_CAT_ID":47937,"ELEMENT_SET_NO":999,"REV_AT_EPOCH":27452,"BSTAR":0.00038690553,"MEAN_MOTION_DOT":0.00011656,"MEAN_MOTION_DDOT":0}]
